[
    {
        "Altitude(m)": 556966.757326154,
        "Argument of Periapsis(deg)": 0.006622991110713501,
        "Eccentricity": 0.0,
        "Inclination(deg)": 53.0,
        "Latitude(deg)": 40.09220646026978,
        "Longitude(deg)": 0.11009836683947691,
        "Mean Anomaly(deg)": -233.54470713242247,
        "RAAN(deg)": 319.990143368528,
        "Satellite Name": "Starlink Shell 1 1415",
        "Satellite Number": 1415,
        "Semi-Major Axis(m)": 6931778.249405717,
        "Time(s)": 190
    },
    {
        "Altitude(m)": 556883.8178468449,
        "Argument of Periapsis(deg)": 0.0069715695902247375,
        "Eccentricity": 0.0,
        "Inclination(deg)": 53.0,
        "Latitude(deg)": 39.70097158813637,
        "Longitude(deg)": 0.7069683724729791,
        "Mean Anomaly(deg)": -232.9178759288657,
        "RAAN(deg)": 319.9896245984506,
        "Satellite Name": "Starlink Shell 1 1415",
        "Satellite Number": 1415,
        "Semi-Major Axis(m)": 6931778.249405717,
        "Time(s)": 200
    },
    {
        "Altitude(m)": 556800.6853382766,
        "Argument of Periapsis(deg)": 0.007320148069735974,
        "Eccentricity": 0.0,
        "Inclination(deg)": 53.0,
        "Latitude(deg)": 39.30624231629284,
        "Longitude(deg)": 1.296647564105899,
        "Mean Anomaly(deg)": -232.2910447253089,
        "RAAN(deg)": 319.98910582837306,
        "Satellite Name": "Starlink Shell 1 1415",
        "Satellite Number": 1415,
        "Semi-Major Axis(m)": 6931778.249405717,
        "Time(s)": 210
    },
    {
        "Altitude(m)": 556717.4139729248,
        "Argument of Periapsis(deg)": 0.007668726549247212,
        "Eccentricity": 0.0,
        "Inclination(deg)": 53.0,
        "Latitude(deg)": 38.90810462367264,
        "Longitude(deg)": 1.8792544566559328,
        "Mean Anomaly(deg)": -231.66421352175226,
        "RAAN(deg)": 319.98858705829554,
        "Satellite Name": "Starlink Shell 1 1415",
        "Satellite Number": 1415,
        "Semi-Major Axis(m)": 6931778.249405717,
        "Time(s)": 220
    },
    {
        "Altitude(m)": 556634.0582039461,
        "Argument of Periapsis(deg)": 0.00801730502875845,
        "Eccentricity": 0.0,
        "Inclination(deg)": 53.0,
        "Latitude(deg)": 38.506642677358585,
        "Longitude(deg)": 2.4549082938880304,
        "Mean Anomaly(deg)": -231.0373823181955,
        "RAAN(deg)": 319.98806828821813,
        "Satellite Name": "Starlink Shell 1 1415",
        "Satellite Number": 1415,
        "Semi-Major Axis(m)": 6931778.249405717,
        "Time(s)": 230
    },
    {
        "Altitude(m)": 556550.6727374532,
        "Argument of Periapsis(deg)": 0.008365883508269684,
        "Eccentricity": 0.0,
        "Inclination(deg)": 53.0,
        "Latitude(deg)": 38.10193885119801,
        "Longitude(deg)": 3.02372934816075,
        "Mean Anomaly(deg)": -230.41055111463885,
        "RAAN(deg)": 319.98754951814067,
        "Satellite Name": "Starlink Shell 1 1415",
        "Satellite Number": 1415,
        "Semi-Major Axis(m)": 6931778.249405717,
        "Time(s)": 240
    },
    {
        "Altitude(m)": 556467.3125046119,
        "Argument of Periapsis(deg)": 0.008714461987780921,
        "Eccentricity": 0.0,
        "Inclination(deg)": 53.0,
        "Latitude(deg)": 37.69407374665875,
        "Longitude(deg)": 3.585837721886312,
        "Mean Anomaly(deg)": -229.78371991108207,
        "RAAN(deg)": 319.98703074806315,
        "Satellite Name": "Starlink Shell 1 1415",
        "Satellite Number": 1415,
        "Semi-Major Axis(m)": 6931778.249405717,
        "Time(s)": 250
    },
    {
        "Altitude(m)": 556384.0326336137,
        "Argument of Periapsis(deg)": 0.009063040467292158,
        "Eccentricity": 0.0,
        "Inclination(deg)": 53.0,
        "Latitude(deg)": 37.283126215688185,
        "Longitude(deg)": 4.141353675842448,
        "Mean Anomaly(deg)": -229.15688870752538,
        "RAAN(deg)": 319.98651197798574,
        "Satellite Name": "Starlink Shell 1 1415",
        "Satellite Number": 1415,
        "Semi-Major Axis(m)": 6931778.249405717,
        "Time(s)": 260
    },
    {
        "Altitude(m)": 556300.8884214583,
        "Argument of Periapsis(deg)": 0.009411618946803396,
        "Eccentricity": 0.0,
        "Inclination(deg)": 53.0,
        "Latitude(deg)": 36.869173385342485,
        "Longitude(deg)": 4.690397970850079,
        "Mean Anomaly(deg)": -228.5300575039687,
        "RAAN(deg)": 319.9859932079082,
        "Satellite Name": "Starlink Shell 1 1415",
        "Satellite Number": 1415,
        "Semi-Major Axis(m)": 6931778.249405717,
        "Time(s)": 270
    },
    {
        "Altitude(m)": 556217.9353056728,
        "Argument of Periapsis(deg)": 0.009760197426314633,
        "Eccentricity": 0.0,
        "Inclination(deg)": 53.0,
        "Latitude(deg)": 36.452290683970425,
        "Longitude(deg)": 5.233090709327408,
        "Mean Anomaly(deg)": -227.903226300412,
        "RAAN(deg)": 319.98547443783076,
        "Satellite Name": "Starlink Shell 1 1415",
        "Satellite Number": 1415,
        "Semi-Major Axis(m)": 6931778.249405717,
        "Time(s)": 280
    },
    {
        "Altitude(m)": 556135.2288358477,
        "Argument of Periapsis(deg)": 0.01010877590582587,
        "Eccentricity": 0.0,
        "Inclination(deg)": 53.0,
        "Latitude(deg)": 36.032551868759114,
        "Longitude(deg)": 5.769551701851157,
        "Mean Anomaly(deg)": -227.27639509685528,
        "RAAN(deg)": 319.9849556677533,
        "Satellite Name": "Starlink Shell 1 1415",
        "Satellite Number": 1415,
        "Semi-Major Axis(m)": 6931778.249405717,
        "Time(s)": 290
    },
    {
        "Altitude(m)": 556052.8246451257,
        "Argument of Periapsis(deg)": 0.010457354385337106,
        "Eccentricity": 0.0,
        "Inclination(deg)": 53.0,
        "Latitude(deg)": 35.61002905445166,
        "Longitude(deg)": 6.299900845247671,
        "Mean Anomaly(deg)": -226.64956389329853,
        "RAAN(deg)": 319.9844368976758,
        "Satellite Name": "Starlink Shell 1 1415",
        "Satellite Number": 1415,
        "Semi-Major Axis(m)": 6931778.249405717,
        "Time(s)": 300
    },
    {
        "Altitude(m)": 555970.7784215778,
        "Argument of Periapsis(deg)": 0.010805932864848343,
        "Eccentricity": 0.0,
        "Inclination(deg)": 53.0,
        "Latitude(deg)": 35.18479274306401,
        "Longitude(deg)": 6.824256998739192,
        "Mean Anomaly(deg)": -226.02273268974182,
        "RAAN(deg)": 319.9839181275983,
        "Satellite Name": "Starlink Shell 1 1415",
        "Satellite Number": 1415,
        "Semi-Major Axis(m)": 6931778.249405717,
        "Time(s)": 310
    },
    {
        "Altitude(m)": 555889.1458795003,
        "Argument of Periapsis(deg)": 0.01115451134435958,
        "Eccentricity": 0.0,
        "Inclination(deg)": 53.0,
        "Latitude(deg)": 34.756911854447125,
        "Longitude(deg)": 7.342738383306829,
        "Mean Anomaly(deg)": -225.39590148618512,
        "RAAN(deg)": 319.9833993575209,
        "Satellite Name": "Starlink Shell 1 1415",
        "Satellite Number": 1415,
        "Semi-Major Axis(m)": 6931778.249405717,
        "Time(s)": 320
    },
    {
        "Altitude(m)": 555807.9827306912,
        "Argument of Periapsis(deg)": 0.011503089823870818,
        "Eccentricity": 0.0,
        "Inclination(deg)": 53.0,
        "Latitude(deg)": 34.32645375754453,
        "Longitude(deg)": 7.855462990823593,
        "Mean Anomaly(deg)": -224.7690702826284,
        "RAAN(deg)": 319.9828805874434,
        "Satellite Name": "Starlink Shell 1 1415",
        "Satellite Number": 1415,
        "Semi-Major Axis(m)": 6931778.249405717,
        "Time(s)": 330
    },
    {
        "Altitude(m)": 555727.3446556249,
        "Argument of Periapsis(deg)": 0.011851668303382053,
        "Eccentricity": 0.0,
        "Inclination(deg)": 53.0,
        "Latitude(deg)": 33.89348430220875,
        "Longitude(deg)": 8.362547489528312,
        "Mean Anomaly(deg)": -224.14223907907163,
        "RAAN(deg)": 319.98236181736587,
        "Satellite Name": "Starlink Shell 1 1415",
        "Satellite Number": 1415,
        "Semi-Major Axis(m)": 6931778.249405717,
        "Time(s)": 340
    },
    {
        "Altitude(m)": 555647.2872746348,
        "Argument of Periapsis(deg)": 0.012200246782893292,
        "Eccentricity": 0.0,
        "Inclination(deg)": 53.0,
        "Latitude(deg)": 33.458067851457606,
        "Longitude(deg)": 8.864107651046348,
        "Mean Anomaly(deg)": -223.515407875515,
        "RAAN(deg)": 319.98184304728846,
        "Satellite Name": "Starlink Shell 1 1415",
        "Satellite Number": 1415,
        "Semi-Major Axis(m)": 6931778.249405717,
        "Time(s)": 350
    },
    {
        "Altitude(m)": 555567.8661190865,
        "Argument of Periapsis(deg)": 0.012548825262404526,
        "Eccentricity": 0.0,
        "Inclination(deg)": 53.0,
        "Latitude(deg)": 33.02026731405351,
        "Longitude(deg)": 9.360258785564383,
        "Mean Anomaly(deg)": -222.88857667195822,
        "RAAN(deg)": 319.981324277211,
        "Satellite Name": "Starlink Shell 1 1415",
        "Satellite Number": 1415,
        "Semi-Major Axis(m)": 6931778.249405717,
        "Time(s)": 360
    },
    {
        "Altitude(m)": 555489.1366025172,
        "Argument of Periapsis(deg)": 0.012897403741915765,
        "Eccentricity": 0.0,
        "Inclination(deg)": 53.0,
        "Latitude(deg)": 32.580144177301825,
        "Longitude(deg)": 9.851114671781907,
        "Mean Anomaly(deg)": -222.26174546840156,
        "RAAN(deg)": 319.9808055071335,
        "Satellite Name": "Starlink Shell 1 1415",
        "Satellite Number": 1415,
        "Semi-Major Axis(m)": 6931778.249405717,
        "Time(s)": 370
    }
]